{
    "links": {
        "self": "http://www.neowsapp.com/rest/v1/neo/3401102?api_key=iIulBulltgU6a56xZRHN4H3l9WmuAYTsLGpBGhQ2"
    },
    "id": "3401102",
    "neo_reference_id": "3401102",
    "name": "(2008 BE15)",
    "designation": "2008 BE15",
    "nasa_jpl_url": "http://ssd.jpl.nasa.gov/sbdb.cgi?sstr=3401102",
    "absolute_magnitude_h": 24.8,
    "estimated_diameter": {
        "kilometers": {
            "estimated_diameter_min": 0.0291443905,
            "estimated_diameter_max": 0.0651688382
        },
        "meters": {
            "estimated_diameter_min": 29.1443904535,
            "estimated_diameter_max": 65.1688382168
        },
        "miles": {
            "estimated_diameter_min": 0.018109479,
            "estimated_diameter_max": 0.0404940262
        },
        "feet": {
            "estimated_diameter_min": 95.6180819754,
            "estimated_diameter_max": 213.8085311752
        }
    },
    "is_potentially_hazardous_asteroid": false,
    "close_approach_data": [
        {
            "close_approach_date": "2008-02-04",
            "close_approach_date_full": "2008-Feb-04 18:02",
            "epoch_date_close_approach": 1202148120000,
            "relative_velocity": {
                "kilometers_per_second": "14.8097618148",
                "kilometers_per_hour": "53315.1425334445",
                "miles_per_hour": "33127.9562036283"
            },
            "miss_distance": {
                "astronomical": "0.0234004445",
                "lunar": "9.1027729105",
                "kilometers": "3500656.654253215",
                "miles": "2175207.179255767"
            },
            "orbiting_body": "Earth"
        }
    ],
    "orbital_data": {
        "orbit_id": "10",
        "orbit_determination_date": "2017-04-06 09:04:37",
        "first_observation_date": "2008-01-30",
        "last_observation_date": "2008-02-03",
        "data_arc_in_days": 4,
        "observations_used": 38,
        "orbit_uncertainty": "8",
        "minimum_orbit_intersection": ".0111972",
        "jupiter_tisserand_invariant": "3.123",
        "epoch_osculation": "2454497.5",
        "eccentricity": ".6604518210144269",
        "semi_major_axis": "2.496522459722394",
        "inclination": "2.517752887774425",
        "ascending_node_longitude": "122.5316991675087",
        "orbital_period": "1440.793176793693",
        "perihelion_distance": ".8476896549953227",
        "perihelion_argument": "64.75329152092961",
        "aphelion_distance": "4.145355264449465",
        "perihelion_time": "2454536.226647784910",
        "mean_anomaly": "350.3236679440745",
        "mean_motion": ".2498623715036848",
        "equinox": "J2000",
        "orbit_class": {
            "orbit_class_type": "APO",
            "orbit_class_description": "Near-Earth asteroid orbits which cross the Earth’s orbit similar to that of 1862 Apollo",
            "orbit_class_range": "a (semi-major axis) > 1.0 AU; q (perihelion) < 1.017 AU"
        }
    },
    "is_sentry_object": false
}